[{"OBJECT_NAME":"SITRO-AIS 25","OBJECT_ID":"2024-039R","EPOCH":"2026-03-09T23:42:54.414720","MEAN_MOTION":14.92631971,"ECCENTRICITY":0.01453919,"INCLINATION":95.3931,"RA_OF_ASC_NODE":166.9537,"ARG_OF_PERICENTER":315.2559,"MEAN_ANOMALY":43.701,"EPHEMERIS_TYPE":0,"CLASSIFICATION_TYPE":"U","NORAD_CAT_ID":59066,"ELEMENT_SET_NO":999,"REV_AT_EPOCH":10992,"BSTAR":0.00036753428,"MEAN_MOTION_DOT":4.616e-5,"MEAN_MOTION_DDOT":0},{"OBJECT_NAME":"COSMOS 2251 DEB","OBJECT_ID":"1993-036GJ","EPOCH":"2026-03-09T09:01:45.653376","MEAN_MOTION":14.85640733,"ECCENTRICITY":0.00467791,"INCLINATION":73.9175,"RA_OF_ASC_NODE":57.6751,"ARG_OF_PERICENTER":289.0388,"MEAN_ANOMALY":70.5727,"EPHEMERIS_TYPE":0,"CLASSIFICATION_TYPE":"U","NORAD_CAT_ID":33999,"ELEMENT_SET_NO":999,"REV_AT_EPOCH":90536,"BSTAR":0.001837424,"MEAN_MOTION_DOT":0.00016238,"MEAN_MOTION_DDOT":0}]
